[{"OBJECT_NAME":"STARLINK-3902","OBJECT_ID":"2022-049AN","EPOCH":"2026-03-09T07:46:08.337504","MEAN_MOTION":15.08818514,"ECCENTRICITY":0.00013611,"INCLINATION":53.2184,"RA_OF_ASC_NODE":50.8701,"ARG_OF_PERICENTER":87.9004,"MEAN_ANOMALY":272.2144,"EPHEMERIS_TYPE":0,"CLASSIFICATION_TYPE":"U","NORAD_CAT_ID":52487,"ELEMENT_SET_NO":999,"REV_AT_EPOCH":21357,"BSTAR":5.010715e-6,"MEAN_MOTION_DOT":-2.08e-6,"MEAN_MOTION_DDOT":0},{"OBJECT_NAME":"OBJECT K","OBJECT_ID":"2017-042K","EPOCH":"2026-03-09T21:28:20.621568","MEAN_MOTION":15.07994228,"ECCENTRICITY":0.00097557,"INCLINATION":97.4104,"RA_OF_ASC_NODE":233.8721,"ARG_OF_PERICENTER":49.2775,"MEAN_ANOMALY":310.9299,"EPHEMERIS_TYPE":0,"CLASSIFICATION_TYPE":"U","NORAD_CAT_ID":42834,"ELEMENT_SET_NO":999,"REV_AT_EPOCH":47201,"BSTAR":0.00042776846,"MEAN_MOTION_DOT":6.528e-5,"MEAN_MOTION_DDOT":0}]
